SL-14 R/B               
1 16792U 86046B   26064.56395302  .00000645  00000+0  71559-4 0  9995
2 16792  82.4782  84.0813 0021741 239.7797 120.1266 14.85585893125799
SL-14 R/B               
1 16882U 86055B   26064.64639008  .00000641  00000+0  70999-4 0  9991
2 16882  82.5209 130.4745 0018531 350.2918 174.4973 14.85638723118768
AJISAI (EGS)            
1 16908U 86061A   26064.62365921 -.00000076  00000+0  14750-3 0  9990
2 16908  50.0080 105.8513 0011255 276.5759 169.8789 12.44515598467499
COSMOS 1812             
1 17295U 87003A   26064.58243203  .05225315 -12561-5  50899-3 0  9995
2 17295  82.4648 200.2475 0010118 278.1750  81.8400 16.38269848143823
SL-14 R/B               
1 17567U 87024B   26064.59886053  .00000615  00000+0  67260-4 0  9995
2 17567  82.5250  96.6097 0016679 274.7491  85.1820 14.86127704 87526
COSMOS 1833             
1 17589U 87027A   26064.18816242 -.00000132  00000+0 -44565-4 0  9999
2 17589  70.9232 335.4791 0024478 220.7927 139.1363 14.13055825  9684
SL-16 R/B               
1 17590U 87027B   26064.03370830 -.00000168  00000+0 -59456-4 0  9997
2 17590  71.0015 286.3071 0003628 152.8419 207.2895 14.17165983 14681
SL-14 R/B               
1 17912U 87038B   26064.59172935  .00000608  00000+0  67627-4 0  9990
2 17912  82.5008 300.6684 0019329 173.7146 186.4317 14.85365228 78622
COSMOS 1844             
1 17973U 87041A   26064.36954211 -.00000092  00000+0 -22809-4 0  9993
2 17973  70.8996  43.2872 0029762  24.3038 335.9480 14.14553146  2974
SL-14 R/B               
1 18153U 87055B   26064.50203623  .00000820  00000+0  91608-4 0  9999
2 18153  82.5029 352.9768 0021508  31.2603 328.9887 14.85623784 69319
COSMOS 1867             
1 18187U 87060A   26064.10985379  .00000010  00000+0  41241-4 0  9992
2 18187  65.0117 319.5309 0014418 278.3689  81.5761 14.31502252 19281
SL-14 R/B               
1 18749U 88001B   26064.63175702  .00000851  00000+0  95575-4 0  9993
2 18749  82.5146 199.1758 0016668 250.2080 109.7339 14.85522157 41424
